"id";"name_school";"name_school_kz";"region_id";"class";"kvota_kz";"kvota_ru";"address";"address_kz";"phone";"site";"email"
"1";"КГУ «Областная специализированная школа-интернат №3 для одаренных детей имени Абая, город Кокшетау» Управления образования Акмолинской области";"Ақмола облысы білім басқармасының «Көкшетау қаласы, Абай атындағы дарынды балаларға арналған № 3 облыстық мамандандырылған мектеп-интернаты» КММ";"1";"7";"40";"0";"Акмолинская область, г. Кокшетау, ул.Саина 20 А";"Ақмола облысы, Көкшетау қаласы, Саина көшесі, 20 А";"8/7162/77-10-79";"sc0026.kokshetau.aqmoedu.kz";"kazinternat@mail.ru"
"2";"КГУ «Областная специализированная школа-интернат №2 для одаренных детей, город Нур-Султан» Управления образования Акмолинской области";"Ақмола облысы білім басқармасының «Нұр-Сұлтан қаласы, дарынды балаларға арналған № 2 облыстық мамандандырылған мектепинтернаты» КММ";"1";"7";"35";"10";"г. Нур- Султан, ул.А. Затаевича 14";"Нұр- Сұлтан қаласы, А. Затаевича көшесі, 14";"8/7172/942022";"http://sc0001.aqmoedu.kz/";"shkola.daryn@gmail.com"
"3";"КГУ «Областная специализированная школа-интернат №4 для одаренных детей «Болашак» город Степногорск» Управления образования Акмолинской области";"Ақмола облысы білім басқармасының «Дарынды балаларға арналған №4 облыстық мамандандырылған «Болашақ» мектеп-интернаты» КММ, Степногорск қаласы";"1";"7";"24";"24";"Акмолинская область, г.Степногорск, 4 микрорайон, 135 здание";"Ақмола облысы, Степногорск қаласы, 4 шағын ауданы, 135 ғимарат";"8 /7164/56-01-03";"http://sc0022.stepnogorsk.aqmoedu.kz";"bolashak_uch@inbox.ru"
"4";"ГУ «Актюбинская областная специализированная школа-интернат для одаренных детей имени М. Кусаинова» Управления образования Актюбинской области";"«Ақтөбе облысының білім басқармасы» ММ «М. Құсайынов атындағы Ақтөбе облыстық дарынды балаларға арналған мамандандырылған мектеп-интернаты» КММ";"2";"5";"52";"0";"г.Актобе, ул. Н.Кобландина 2а";"Ақтөбе қаласы,  Н.Қобландина көшіесі, 2а";"8/7132/21-10-73";"www.qusaiynovmektebi.kz ";"aktdaryn@mail.ru"
"5";"ГУ «Актюбинская областная специализированная физико-математическая школа-интернат» Управления образования Актюбинской области";"«Ақтөбе облысының білім басқармасы» ММ «Ақтөбе облыстық мамандандырылған физика-математика мектеп-интернаты» КММ";"2";"6";"26";"0";"г. Актобе, проспект Санкибай батыра, 74-С";"Ақтөбе қаласы,  Сәнкібай батыр даңғылы, 74-С";"8 /7132/90-93-31";"https://www.phizmat.kz/";"phys-math.edu@mail.ru"
"6";"КГУ «Специализированный лицей № 20 для одаренных детей с обучением на трех языках""  города Талдыкорган» ГУ «Управления образования Алматинской области»";"«Алматы облысы білім басқармасы» ММ Талдықорған қаласындағы «Дарынды балаларға арналған үш тілде оқытатын №20 арнаулы лицейі» КММ";"3";"5";"25";"25";"Алматинская область, г.Талдыкорган, пр.Назарбаева, 62А";"Алматы облысы, Талдықорған қ., Назарбаев даңғылы, 62А";"8/7282/24-66-13";"http://20-litsei.mektebi.kz/, https://www.facebook. com/SLGS20";"licey20 @ mail.ru"
"7";"КГУ «Специализированный лицей «Экономика и бизнес» № 24 имени Мухтара Арына для одаренных детей с обучением на трех языках» Управления образования Алматинской области, город Талдыкорган";"«Алматы облысы білім басқармасы» ММ Талдықорған қаласындағы «Дарынды балаларға арналған үш тілде оқытатын Мұхтар Арын атындағы № 24 «Экономика және бизнес» арнаулы лицейі» КММ";"3";"5";"75";"0";"Алматинская область, г.Талдыкорган. ул.Абылайхана, 150";"Алматы облысы, Талдықорған қ., Абылайхан көшесі, 150";"8/7282/24-42-66";"24-taldyk.mektebi.kz";"taldarin24@mail.ru"
"8";"КГУ «Алматинская областная специализированная физико-математическая школа-интернат имени Ш.Смагулова для одаренных детей» ГУ «Управления образования Алматинской области»";"«Алматы облысы білім басқармасы» ММ «Ш.Смағұлов атындағы Алматы облыстық мамандандырылған дарынды балаларға арналған физика-математика орта мектеп-интернаты» КММ";"3";"7";"75";"0";"г.Алматы, ул. Габдуллина, 45";"Алматы қаласы, Габдуллина көшесі, 45 үй";"8/7273/76 26 05";"smagulov-fizmat.mektebi.kz";"aofmmismagulov@gmail.com"
"9";"КГУ «Каргалинская специализированная гимназия №2 для одаренных детей с обучением на трех языках» Жамбылского района «Управления образования Алматинской области»";"«Алматы облысы білім басқармасы» ММ Жамбыл ауданындағы «Дарынды балаларға арналған үш тілде оқытатын Қарғалы № 2 арнаулы гимназиясы» КММ";"3";"5";"45";"0";"Алматинская область, Жамбылский район, с.Каргалы, микрарайон Наурыз, улица Наурыз 1";"Алматы облысы, Жамбыл ауданы, Каргалы ауылы, Наурыз шағын ауданы, Наурыз көшесі, 1";"8/7277/ 03-06-32";"2-kargaly.mektebi.kz";"kcgod2@mail.ru"
"10";"КГУ «Специализированная гимназия имени Аль-Фараби для одаренных детей с обучением на трех языках» Карасайского района Управления образования Алматинской области";"«Алматы облысы білім басқармасы» ММ Қарасай ауданындағы «Дарынды балаларға арналған үш тілде оқытатын Әл-Фараби атындағы арнаулы гимназиясы» КММ";"3";"5";"25";"0";"Алматинская область Карасайский район п.Алмалыбак, ул.Хабибуллина, №9";"Алматы облысы, Қарасай ауданы, Алмалыбақ ауылы, Хабибуллина көшесі, №9 үй";"8/7277/ 15-39-39";"http://al-farabi.mektebi.kz/";"priemnaya_al-farabi@mail.ru"
"11";"КГУ «Специализированная с углубленным изучением казахского языка и литературы средняя школа-интернат для одаренных детей имени Абая» ГУ «Управления образования Алматинской области»";"«Алматы облысы білім басқармасы» ММ «Абай атындағы мамандандырылған дарынды балаларға арналған қазақ тілі мен әдебиетін тереңдете оқытатын орта мектеп-интернаты» КММ";"3";"5";"25";"0";"г. Алматы, ул.  Чернышевского, 43";" Алматы қаласы,   Чернышевского көшесі, 43 үй";"8/7273/42-03-70";"нет сайта";"15aosi@mail.ru"
"12";"КГУ «Специализированная с углубленным изучением казахского языка и литературы средняя школа-интернат для одаренных детей имени Абая» ГУ «Управления образования Алматинской области»";"«Алматы облысы білім басқармасы» ММ «Абай атындағы мамандандырылған дарынды балаларға арналған қазақ тілі мен әдебиетін тереңдете оқытатын орта мектеп-интернаты» КММ";"3";"6";"25";"0";"г. Алматы, ул.  Чернышевского, 43";" Алматы қаласы,   Чернышевского көшесі, 43 үй";"8/7273/42-03-70";"нет сайта";"15aosi@mail.ru"
"13";"ГУ «Атырауская областная школа-интернат для одаренных детей» Управления образования Атырауской области";"Атырау облысы білім басқармасының «Атырау облысы дарынды балалар мектеп-интернаты» ММ";"4";"7";"40";"20";"г.Атырау, ул.Байтурсынова,127";"Атырау қаласы, А. Байтұрсынов көшесі,127 үй";"8/7122/27-84-36, 87014155041";".";"shkoladaryn@bk.ru, svet-sultana@mail.ru"
"14";"ГУ «Областная национальная гимназия для одаренных детей с интернатным учреждением» Управления образования Атырауской области";"Атырау облысы білім басқармасының «Облыстық дарынды балаларға арналған интернаттық мекемесі бар ұлттық гимназиясы» ММ";"4";"7";"75";"0";"г. Атырау, Абдрахманова, 39 А";"Атырау қаласы,  Абдрахманова көшесі, 39 А";"8/7122/51-86-08";;"atyrauoblgim@bkl.ru"
"15";"ГУ «Областной лицей имени Ж.Досмухамбетова для одаренных детей с интернатным учреждением» Управления образования Атырауской области";"Атырау облысы білім басқармасының «Ж. Досмұхамбетов атындағы дарынды балаларға арналған интернаттық мекемесі бар лицей» КММ";"4";"7";"40";"35";"г.Атырау, ул. М.Ауезова, 12";"Атырау қаласы, М.Ауезов көшесі, 12 үй";"8/7122/30-60-50";"dosmukhambetovkz.simplesite.com";"dosmyhanbetov@mail.ru"
"16";"КГУ «Областная специализированная IT школа-лицей» Управления образования Восточно-Казахстанской области";"Шығыс Қазақстан облысы білім басқармасының «Облыстық мамандандырылған IT мектеп-лицейі» КММ";"5";"5";"0";"75";"Восточно-Казахстанская область, г. Усть - Каменогорск, ул. Калихан Ыскак, 2/1";"Шығыс-Қазақстан облысы, Өскемен қаласы, Қалихан Ысқақ көшесі, 2/1 үй";"8/7232/77-60-76";"vostok.kokos.kz";"vostok97@bk.ru"
"17";"КГУ «Областная специализированная школа-лицей для детей, одаренных в области математики, физики, информатики» Управления образования Восточно-Казахстанской области";"Шығыс Қазақстан облысы білім басқармасының «Облыстық математика, физика, информатика саласындағы дарынды балаларға арналған мамандандырылған мектеп-лицейі» КММ";"5";"5";"0";"100";"Восточно-Казахстанская область, г.Усть-Каменогорск, ул.Новаторов 9 А";"Шығыс-Қазақстан облысы, Өскемен қаласы,  Новаторов көшесі, 9А";"8(7232)24-93-01";"www.vkschool25.com";"osshlmfi91@mail.ru"
"18";"КГУ «Областная специализированная школа-гимназия-интернат имени Жамбыла для одаренных детей» Управления образования Восточно-Казахстанской области";"Шығыс Қазақстан облысы білім басқармасының «Дарынды балаларға арналған Жамбыл атындағы облыстық мамандандырылған мектепгимназия-интернаты» КММ";"5";"7";"75";"0";"Восточно-Казахстанская область, г. Усть-Каменогорск, ул.Амурская 12/1";"Шығыс-Қазақстан облысы, Өскемен қаласы, Амурская 12/1 кшесі";"8/7232/22-44-96";"http://oskemenzhambul.kz/";"zhambul1920@mail.ru"
"19";"КГУ «Областная специализированная школа-лицей-интернат для одаренных детей» Управления образования Восточно-Казахстанского области";"Шығыс Қазақстан облысы білім басқармасының «Дарынды балаларға арналған облыстық мамандандырылған мектеп-лицей-интернаты» КММ";"5";"7";"55";"0";"Восточно-Казахстанская область, г.Усть-Каменогорск пер.Западный 96,98";"Шығыс-Қазақстан облысы, Өскемен қаласы, Западный 96,98 қиылысы";"8/7232/78-05-04";"http://shqo-daryn.mektebi.kz/";"vkolicei@mail.ru"
"20";"КГУ «Специализированная мужская школа-лицей-интернат «Жас Улан» имени Ш. Уалиханова для одаренных детей» Управления образования Восточно-Казахстанской области";"Шығыс Қазақстан облысы білім басқармасының ""Дарынды балаларға арналған Ш.Уәлиханов атындағы ""Жас Ұлан"" арнайы ерлер мектеп- лицей-интернаты"" КММ";"5";"5";"25";"25";"Восточно-Казахстанская область, г.Семей ул.Шугаева, 159А";"Шығыс-Қазақстан облысы, Семей қаласы, Шұғаев көшесі, 159А";"8/7222/34-12-22";"http://zhasulan-semey.kz/";"semey_ylan95@mail.ru"
"21";"КГУ «Валеологическая специализированная школа-комплекс для одаренных детей» Управления образования Восточно-Казахстанской области";"Шығыс Қазақстан облысы білім басқармасының «Дарынды балаларға арналған валеологиялық мамандандырылған мектеп-кешені» КММ";"5";"1";"0";"40";"Восточно-Казахстанская область, г.Усть-Каменогорск, пр.Абая 11/1";"Шығыс-Қазақстан облысы, Өскемен қаласы, Абай даңғылы, 11/1";"8/7232/ 22-60-89";"http://valeo.mektebi.kz";"valeoschool@mail.ru"
"22";"ГУ «Специализированная школа для одаренных детей с обучением на трех языках» Управления образования Жамбылской области";"Жамбыл облысы әкімдігі білім басқармасының «Үш тілде оқытатын дарынды балаларға арналған мамандандырылған мектебі» КММ";"6";"7";"50";"25";"Жамбылская область, город Тараз, Толе би 22";"Жамбыл облысы,  Тараз қаласы, Толе би көшесі, 22";"8/7262/43-91-19";"http://taraz-arnaiy.mektebi.kz";"taraz_shod@mail.kz , taraz_shod@mail.ru"
"23";"ГУ «Специализированная школа-интернат «Дарын» для одаренных детей» Управления образования Жамбылской области";"Жамбыл облысы әкімдігі білім басқармасының «Дарынды балаларға арналған мамандандырылған «Дарын» мектеп-интернаты» КММ";"6";"7";"60";"20";"Жамбылская область, город Тараз, улица Сатбаева 27";"Жамбыл облысы,  Тараз қаласы,  Сәтбаев көшесі, 27";"8/7262/427231";"http://daryn-taraz.mektebi.kz";"Daryntaraz@mail.ru"
"24";"КГУ «Специализированный IT лицей-интернат для одаренных детей» Управления образования Жамбылской области";"Жамбыл облысы әкімдігі білім басқармасының «Дарынды балаларға арналған мамандандырылған IT лицей-интернаты» КММ";"6";"7";"40";"0";"Жамбылская область, город Тараз, 14 микрорайон, 31 здание";"Жамбыл облысы, Тараз қаласы, 14 шағын ауданы, 31 ғимарат";"8/7262/51-01-90";"J-itlyceum.kz";"it_taraz@mail.ru"
"25";"КГУ «Областная специализированная школа № 8 для одаренных детей» Управления образования Западно-Казахстанской области";"Батыс Қазақстан облысы білім басқармасының «Дарынды балаларға арналған мамандандырылған № 8 облыстық мектебі» КММ";"7";"5";"0";"75";"Западно-Казахстанская область, г. Уральск, ул. Самал 72";"Батыс-Қазақстан облысы, Орал қаласы, Самал көшесі, 72 үй";"8/7112/27-21-00";"http://8-mektep.kz";"zko_uralsk_sh_ 8@mail.ru"
"26";"КГУ «Областная специализированная школа-интернат для одаренных детей № 11 имени С. Сейфуллина» Управления образования Западно-Казахстанской области";"Батыс Қазақстан облысы білім басқармасының «Дарынды балаларға арналған С. Сейфуллин атындағы № 11 облыстық мамандандырылған мектеп-интернаты» КММ";"7";"7";"75";"0";"Западно-Казахстанская область, г. Уральск, ул. Мухит д. 37";"Батыс-Қазақстан облысы, Орал қаласы, Мұхит көшесі, 37 үй";"8/7112/50-62-73";"http://11-mektep.kz/";"okshikod11@mail.ru"
"27";"КГУ «Западно-Казахстанская областная специализированная школа-лицей-интернат информационных технологий для одаренных детей» Управления образования Западно-Казахстанской области";"Батыс Қазақстан облысы білім басқармасының «Батыс Қазақстан облыстық дарынды балаларға арналған мамандандырылған ақпараттық технологиялар мектеп-лицей-интернаты» КММ";"7";"7";"32";"16";"Западно-Казахстанская область, г. Уральск,  ул. Ескалиева, 107";"Батыс-Қазақстан облысы, Орал қаласы,  Есқалиева көшесі, 107 үй";"8/7112/51-42-43";"http://www.it-liceum.kz";"osshiod@mail.ru"
"28";"КГУ «Областная специализированная школа-гимназия -интернат для одаренных детей имени Абая» Управления образования Западно-Казахстанской области";"Батыс Қазақстан облысының білім басқармасының «Абай атындағы облыстық дарынды балаларға арналған мамандандырылған мектепгимназия-интернаты» КММ";"7";"7";"25";"0";"Западно-Казахстанская область, Теректинский район, село Подстепное, улица Советская";"Батыс-Қазақстан облысы, Теректі ауданы, Подстепное ауылы, Советская көшесі";"8/7113/23-65-08";"Tergimsh.edugov2.kz";"osshigod@mail.ru"
"29";"КГУ «Специализированная школа-интернат «Мурагер» Управления образования Карагандинской области";"Қарағанды облысы білім басқармасының «Мұрагер» мамандандырылған мектеп-интернаты» КММ";"8";"5";"25";"25";"г. Караганда, ул.Гоголя 46 а";"Қарағанды қаласы, Гоголя көшесі, 46 а үй";"8/7212/50-03-68";"schoolmurager.kz";"muragerkaraganda@rambler.ru"
"30";"КГУ «Специализированная школа-интернат имени Н. Нурмакова» Управления образования Карагандинской области";"Қарағанды облысы білім басқармасының «Н.Нұрмақов атындағы мамандандырылған мектеп-интернаты» КММ";"8";"5";"72";"0";"г. Караганда, Алиханова 36/2а";"Қарағанды қаласы, Алиханова, 36/2а үй";"8/7212/56-72-32";"nurmakov.org.kz";"nurmakov.krg@nur.kz"
"31";"КГУ «Специализированная школа-интернат «Дарын» Управления образования Карагандинской области";"Қарағанды облысы білім басқармасының «Дарын» мамандандырылған мектеп-интернаты» КММ";"8";"5";"50";"25";"г.Караганда, ул. Гапеева, 29/2";"Қарағанды қаласы, ул. Гапеева, 29/2";"8/7212/34-77-41, 8/7212/34-77-27";"schooldaryn.kz";"darynkrg@bk.ru"
"32";"КГУ «Специализированная школа-интернат имени Жамбыла» Управления образования Карагандинской области";"Қарағанды облысы білім басқармасының «Жамбыл атындағы мамандандырылған мектеп-интернаты» КММ";"8";"5";"75";"0";"г. Караганда, Мкр. 12, дом 13";"Қарағанды қаласы,  12 шағын аудан,  13 үй";"8/7212/45-16-49";"jambyl-school.kz";"krg_7mektep@mail.ru"
"33";"КГУ «Специализированная школа-интернат имени Абая» Управления образования Карагандинской области, города Жезказган";"Қарағанды облысы білім басқармасының Абай атындағы мамандандырылған мектеп-интернаты"" КММ, Жезқазған қаласы";"8";"5";"100";"0";"Карагандинская область, г. Жезказган, проспект Алашахана, 43-д";"Қарағанды облысы,  Жезқазған қаласы, Алашахан көшесі, 43-д";"8/7102/77-61-60";"Www.orkenzhez.kz";"Orkenschool@mail.ru"
"34";"КГУ «Специализированная школа-лицей-интернат «Информационных технологий» Управления образования Карагандинской области";"Қарағанды облысы білім басқармасының «Ақпараттық технологиялар» мамандандырылған мектеп-лицей-интернаты» КММ";"8";"5";"20";"20";"г.Караганда, ул.Колодезная, 9";"Қарағанды қаласы, Колодезная көшесі, 9 үй";"8/7212/37-64-22";"http://itlyceum.kz/";"info@itlyceum.kz"
"35";"КГУ «Специализированная школа-интернат «Зияткер» Управления образования Карагандинской области";"Қарағанды облысы білім басқармасының «Зияткер» мамандандырылған мектеп-лицей-интернаты  КММ, Балқаш қаласы";"8";"5";"50";"25";"Карагандинская область, город Балхаш, ул. Мира,3";"Қарағанды облысы, Балхаш қаласы,  Мира көшесі,3 үй";"8/7103/64-00-51, 66-51-49";"http://www.ziyatker.edu.kz/";"ziyatker_balkhash@mail.ru"
"36";"КГУ «Специализированная школа-интернат «Информационных технологий «Озат» Управления образования Карагандинской области, город Темиртау";"Қарағанды облысы білім басқармасының «Озат» ақпараттық технологиялар мамандандырылған мектеп-интернаты» КММ, Теміртау қаласы";"8";"5";"40";"20";"Карагандинская область, город Темиртау, 9 микрорайон, строение 77/1";"Қарағанды облысы,  Теміртау қаласы, 9 шағын ауданы,  77/1 ғимарат";"8/7213/41-47-07";"Ozat-scool.000webhostapp.com";"ozatt.school@gmail.com"
"37";"КГУ «Специализированная школа-лицей-интернат информационных технологий «Озат» Управления образования Костанайской области";"Қостанай облысы білім басқармасының «Озат» мамандандырылған ақпараттық технологиялар мектеп-лицей-интернаты» КММ";"9";"7";"24";"24";" г.Костанай, ул.Сибирская д.50";"Қостанай қаласы,  Сибирская көшесі, 50";"8/7142/28-44-26";"https://it-ozat.kz/ru/";"ozat_kst@mail.kz"
"38";"КГУ «Специализированная школа-интернат имени Ы. Алтынсарина» Управления образования Костанайской области";"Қостанай облысы білім басқармасының «Ы.Алтынсарин атындағы мамандандырылған мектеп-интернаты» КММ";"9";"5";"50";"0";"г. Костанай, ул.им.И.Алтынсарина,118";"Қостанай қаласы, Ы. Алтынсарин көшесі,118 үй";"8/7142/54-56-94";"http:// shodaltynsarin.kz";"ibrayshod@mail.ru"
"39";"КГУ «Областная школа-интернат для одаренных детей №4 имени Е. Ауельбекова» Управления образования Кызылординской области";"Қызылорда облысы білім басқармасының «Е. Әуелбеков атындағы № 4 облыстық дарынды балаларға арналған мектеп-интернаты» КММ";"10";"7";"50";"0";"г. Кызылорда, ул.Амангельды 25";"Қызылорда қаласы, Амангелді көшесі, 25";"8/7242/70-01-13";"odmi.kz";"odmi4@mail.ru"
"40";"КГУ «Областная школа-интернат №2 для одаренных детей» Управления образования Кызылординской области, город Аральск";"Қызылорда облысы білім басқармасының «№2 облыстық дарынды балаларға арналған лицей-интернаты» КММ, Арал қаласы";"10";"5";"25";"0";"г. Кызылорда, ул. Бактыбай батыра №127";"Қызылорда қаласы,  Бақтыбай батыр көшесі №127 үй";"8/7243/32-14-84";"http://2-aral.mektebi.kz";"edusan2kzaral@mai.ru"
"41";"ГУ «Областная специализированная школа-интернат для одаренных детей с углубленным изучением различных предметов» Управления образования Мангистауской области";"Маңғыстау облысы білім басқармасының «Түрлі пәндерді тереңдетіп оқытатын дарынды балаларға арналған облыстық мамандандырылған мектеп-интернаты» КММ";"11";"7";"75";"25";"Мангистауская область, г.Актау 32 б микр зд, 1";"Маңғыстау облысы, Ақтау қаласы, 32 б шағын ауданы, 1 ғимарат";"8/7292/ 60-94-16";"www.daryn.edus.kz";"omi_daryn@mail.ru"
"42";"ГУ «Гимназия № 3 для одаренных детей» Управления образования Павлодарской области";"Павлодар облысы білім басқармасының «Дарынды балаларға арналған № 3 гимназия» ММ";"12";"5";"25";"25";"г. Павлодар, ул. Бухар Жырау, 19";"Павлодар қаласы, Бұқар Жырау көшесі, 19 үй";"8/7182/55-71-16";"gymnasium3.edu.kz";"gum_3_pavl@mail.ru"
"43";"ГУ «Специализированная школа «Жас дарын» Управления образования Павлодарской области";"Павлодар облысы білім басқармасының «Жас дарын» мамандандырылған мектебі» ММ";"12";"5";"72";"0";"г. Павлодар, ул. Астана, 125";"Павлодар қаласы Астана көшесі, 125 үй";"8/7182/61-81-32";"jasdarynpvl.edu.kz";"gasdaryn@mail.ru"
"44";"ГУ «Специализированная общеобразовательная школа «Зерде» для одаренных детей с государственным языком обучения для одаренных детей» Управления образования Павлодарской области, акимата Павлодарской области";"Павлодар облысы әкімдігі Павлодар облысы білім басқармасының «Мемлекеттік тілде оқытатын дарынды балаларға арналған «Зерде» мамандандырылған жалпы білім беру мектебі» ММ, Екібастұз қаласы";"12";"5";"50";"0";"Павлодарская область, г. Экибастуз, ул. Бауыржан Момышұлы 97";"Павлодар облысы, Екібастұз қаласы,  Бауыржан Момышұлы көшесі, 97 үй";"8/7187/40-04-59,  40-04-59";"www.ekbzerde.edu.kz";"ekbzerde@mail.ru"
"45";"КГУ «Специализированная гимназия для одаренных детей имени Абая» Управления образования Павлодарской области, акимата Павлодарской области";"Павлодар облысы әкімдігі Павлодар облысы білім басқармасының ""Дарынды балаларға арналған Абай атындағы мамандандырылған гимназия"" КММ";"12";"5";"40";"0";"г. Павлодар, ул. Толстого, 95";"Павлодар қаласы,  Толстой көшесі, 95 үй";"8/7182/73-00-15";"abai-gymnasium.edu.kz";"pvl_sch10@mail.ru"
"46";"ГУ «Школа-лицей №8 для одаренных детей» Управления образования Павлодарской области";"Павлодар облысы білім басқармасының «Дарынды балаларға арналған № 8 лицей-мектебі» ММ";"12";"5";"25";"50";"г. Павлодар, улица Астана,12";"Павлодар қаласы,  Астана көшесі,  12 үй";"8/7182/53-47-14";"http://www.lizey8.edu.kz/";"info@lizey8.kz"
"47";"ГУ «Областная казахская гимназия-интернат для одаренных детей имени Ы. Алтынсарина» Управления образования Павлодарской области";"Павлодар облысы білім басқармасының «Ы.Алтынсарин атындағы дарынды балаларға арналған облыстық қазақ гимназия-интернаты» ММ";"12";"5";"72";"0";"г.Павлодар, ул. Айманова 35 ";"Павлодар қаласы, . Айманова көшесі , 35 үй ";"8/7182/64-28-35";"www.altynsarin-gymnasium.kz";"gimn-int@mail.ru"
"48";"КГУ «Областная специализированная военная школа-интернат» Управления образования Павлодарской области, акимата Павлодарской области";"Павлодар облысы әкімдігі Павлодар облысы білім басқармасының «Облыстық мамандандырылған әскери мектеп-интернаты» КММ";"12";"10";"25";"25";"Г.Павлодар.,ул. Ломова 180/7";"Павлодар қаласы,  Ломова көшесі, 180/7 үй";"8/7182/21-23-60, 21-25-02";"Patriot.edu.kz ";"askeri_mektep.pvl@mail.ru"
"49";"ГУ «Областной многопрофильный школа-лицей для одаренных детей» Управления образования Павлодарской области, акимата Павлодарской области";"Павлодар облысы әкімдігі Павлодар облысы білім басқармасының «Дарынды балаларға арналған облыстық көпсалалы дарынды балаларға арналған лицей-интернаты» ММ";"12";"7";"50";"25";"г. Павлодар, улица Катаева, 63";" Павлодар қаласы, Катаева көшесі, 63 үй";"8/7182/68-69-71";"https//omliod.kz";"omschlod@mail.ru"
"50";"ГУ «Специализированная школа-лицей №1 для одаренных детей города Экибастуза» Управления образования Павлодарской области";"Павлодар облысы білім басқармасының «Екібастұз қаласының дарынды балаларға арналған мамандандырылған № 1 лицей-мектебі» ММ";"12";"5";"0";"26";"Павлодарская область, город Экибастуз, улица Абая 25/24";"Павлодар облысы, Екібастұз қаласы, Абай көшесі, 25/24 үй";"8/7187/34-04-83";"Licey1.kz";"scool_1_ek@mail.ru"
"51";"ГУ «Специализированная гимназия для одаренных детей города Аксу» Управления образования Павлодарской области";"Павлодар облысы білім басқармасының «Ақсу қаласының дарынды балаларға арналған мамандандырылған гимназиясы» ММ";"12";"5";"50";"0";"Павлодарская область, г. Аксу, ул.Ауезова 58";"Павлодар облысы, Ақсу қаласы, Әуезов көшесі. 58 үй";"8/7187/72-44-04";"Aksu-gimnasium.edu.kz";"gimnaziya-aksu-metodkab@mail.ru"
"52";"КГУ «Областная специализированная школа-лицей-интернат для одаренных детей ЛОРД» КГУ «Управления образования Северо-Казахстанской области»";"«Солтүстік Қазақстан облысы әкімдігінің білім басқармасы» КММ «ЛОРД» дарынды балалар үшін мамандандырылған облыстық мектеп-лицей-интернаты» КММ";"13";"5";"0";"30";"г.Петропавловск,  ул Ж.Кизатова, 5";"Петропавл қаласы,   Ж.Кизатова көшесі, 5";"8/7152/46-10-31";"http/lord.ucoz.kz/publ/priem_v_licej/priem_v_licej/55";"lyceunlord@mail.ru"
"53";"КГУ «Областная специализированная гимназия-интернат для одаренных детей имени Абу Досмухамбетова» КГУ «Управления образования Северо-Казахстанской области»";"«Солтүстік Қазақстан облысы әкімдігінің білім басқармасы» КММ «Әбу Досмұхамбетов атындағы облыстық дарынды балаларға арналған мамандандырылған гимназия-интернаты» КММ";"13";"5";"50";"0";"г.Петропавловск. Ул. Семашко, 2";"Петропавл қаласы, Семашко көшесі, 2";"8/7152/50-74-67";"Dosmuhambetov.kz";"Daryn_petropavl@mail.ru"
"54";"КГУ «Областная специализированная гимназия-интернат для одаренных детей имени Абу Досмухамбетова» КГУ «Управления образования Северо-Казахстанской области»";"«Солтүстік Қазақстан облысы әкімдігінің білім басқармасы» КММ «Әбу Досмұхамбетов атындағы облыстық дарынды балаларға арналған мамандандырылған гимназия-интернаты» КММ";"13";"7";"25";"0";"г.Петропавловск Ул. Семашко, 2";"Петропавл қаласы, Семашко көшесі, 2";"8/7152/50-74-67";"Dosmuhambetov.kz";"Daryn_petropavl@mail.ru"
"55";"КГУ «Специализированная школа-интернат с обучением на трех языках Тулькубасского района» Управления развития человеческого потенциала Туркестанской области";"Түркістан облысының адами әлеуетті дамыту басқармасының «Түлкібас ауданының үш тілде оқытатын мамандандырылған мектепинтернаты» КММ";"14";"7";"50";"0";"Туркестанская область, Тюлькубасский район, село Т. Рыскулов, ул. М. Абирова, 1";"Түркістан облысы, Түлкібас ауданы,  Т. Рысқұлов ауданы,  М. Абирова көшесі, 1";"7/7253/87-08-10";"нет";"shkoladaryn_2010@mail. ru"
"56";"КГУ «Специализированная школа-интернат №12 для одаренных детей с обучением на трёх языках имени Маржан Тасовой» Управления развития человеческого потенциала Туркестанской области";"Түркістан облысының адами әлеуетті дамыту басқармасының «Маржан Тасова атындағы үш тілде оқытатын № 12 мамандандырылған мектеп-интернаты» КММ";"14";"7";"75";"0";"г Шымкент, ул. Сапак датка, 6 А";"Шымкент қ., Сапақ датқа көшесі, 6 А";"77075587643";"spezschool12@mail.ru";"spezschool12@mail.ru"
"57";"КГУ «Специализированная школа-интернат «Дарын» имени Нуртаса Ондасынова» Управления развития человеческого потенциала Туркестанской области";"Түркістан облысының адами әлеуетті дамыту басқармасының «Нұртай Оңдасынов атындағы Түркістан «Дарын» мектеп-интернаты» КММ";"14";"7";"75";"0";"Туркестанская область, г.Туркестан, ул.Тауке хана, 5б";"Түркістан облысы, Түркістан қ., ул.Тәуке хан көшесі, 5б";"8/7253/32-63-20";"facebook.com/turkistan.daryn5";"n5_tur_daryn@mail.ru"
"58";"КГУ «Специализированная школа-интернат «Дарын» Казыгуртского района» Управления развития человеческого потенциала Туркестанской области";"Түркістан облысының адами әлеуетті дамыту басқармасының «Қазығұрт ауданының мамандандырылған «Дарын» мектепинтернаты» КММ";"14";"7";"50";"0";"Туркестанская область, Казыгуртский район, ул. Енбекши, 2";"Түркістан облысы, Казығұрт ауданы, . Еңбекші көшесі, 2";"8/7253/ 92-14-67";"Daryn27@mail.ru Facebook";"daryn27@mail.ru"
"59";"КГУ «Специализированная школа-интернат «Дарын» города Кентау, Управления развития человеческого потенциала Туркестанской области";"Түркістан облысының адами әлеуетті дамыту басқармасының «Дарын» мектеп-интернаты» КММ, Кентау қаласы";"14";"7";"25";"25";"Туркестанская область,  г. Кентау, ул. Толеби, 72";"Түркістан облысы,  Кентау қ., Төлеби көшесі, 72";"8/7253/63-55-66";"нет";"kentau_daryn@mail.ru"
"60";"КГУ «Специализированная школа-интернат Толебийского района» Управления развития человеческого потенциала Туркестанской области";"Түркістан облысының адами әлеуетті дамыту басқармасының «Төлеби ауданының мамандандырылған мектеп-интернаты» КММ";"14";"7";"46";"0";"Туркестанский область, Толебийский район, город Ленгер, ул. Толеби 279А";"Түркістан облысы, Төлеби ауданы,  Ленгер қаласы,  Төлеби көшесі, 279А";"8/7254/76-12-46";"www.tolebi-daryn.kz";"tol.daryn64@mail.ru"
"61";"КГУ «Специализированная школа-интернат №3 имени Маулена Калмырзы Шардаринского района» Управления развития человеческого потенциала Туркестанской области";"Түркістан облысының адами әлеуетті дамыту басқармасының «Шардара ауданының № 3 мамандандырылған мектеп-интернаты» КММ";"14";"7";"50";"0";"Туркестанская область, г. Шардара, ул. Б.Момышұлы, 27";"Түркістан облысы, Шардара қ.,  Б.Момышұлы көшесі, 27";"8/7253/52-40-41";"Нет";"daryn_shardara@mail.ru"
"62";"КГУ «Специализированная школа-интернат №4 Сарыагашского района» Управления развития человеческого потенциала Туркестанской области";"Түркістан облысының адами әлеуетті дамыту басқармасының «Сарыағаш ауданының № 4 мамандандырылған мектеп-интернаты» КММ";"14";"7";"50";"0";"Туркестанская область,  Сарыагашский район,  ул. Майлықожа 20Б";"Түркістан облысы,  Сарыағаш ауданы,  Майлықожа көшесі, 20Б";"8/7477/40-10-20";"https://saryagashdaryn.kz";"Darin_06@mail.ru"
"63";"КГУ «Специализированная физико-математическая школа-интернат №5 имени Жамбыла Каппарова» Управления развития человеческого потенциала Туркестанской области";"Түркістан облысының адами әлеуетті дамыту басқармасының «Жамбыл Қаппаров атындағы № 5 мамандандырылған физикаматематикалық мектеп-интернаты» КММ, Қазығұрт ауданы";"14";"7";"48";"24";"Туркестанская область, Казыгуртский район, село Атбулак, улица А.Абсаттарова, дом № 101";"Түркістан облысы,  Қазығұрт ауданы, Атбұлақ ауылы,  А.Абсаттарова көшесі,  № 101 үй";"8 /7253/93-52-04";"www.facebook. com/profile.php?id≈ 100033764790254";"daryn 63@mail.ru"
"64";"КГУ «Специализированная школа-интернат Жетисайского района» Управления развития человеческого потенциала Туркестанской области";"Түркістан облысының адами әлеуетті дамыту басқармасының «Жетісай ауданының мамандандырылған «Дарын» мектепинтернаты» КММ";"14";"7";"50";"0";"Туркестанский область, Жетысайский район, город Жетысай, ул. С. Кожанова 35.";"Түркістан облысы,  Жетісай ауданы, Жетысай қ., С. Қожанов көшесі, 35.";"6-57-59; 8700-277-78-77; 8707-707-00-83.";"Жетісай Дарын (фейсбук)";"mak.daryn@mail.ru"
"65";"КГУ «Специализированный IT лицей-интернат №1 для одаренных детей» Управления образования города Шымкент";"Шымкент қаласы білім басқармасының «Дарынды балаларға арналған №1 мамандандырылған IT лицей-интернаты» КММ";"15";"7";"75";"0";"г. Шымкент, ул. Ғ.Орманова, здание №13 А ";"Шымкент қаласы,. Ғ.Орманов көшесі, №13 А ғимарат";"8 /7252/32-35-86";"daryn-bs.kz";"ukodaryn1@mail.ru"
"66";"КГУ «Специализированная школа-интернат №2 с обучением на трех языках» Управления образования города Шымкент";"Шымкент қаласы білім басқармасының «№ 2 мамандандырылған үш тілде оқытатын мектеп-интернаты» КММ, Шымкент қаласы";"15";"7";"50";"0";"г. Шымкент, Абайский район, ул. Казиева, №7";"Шымкент қ., Абай ауданы, Қазиева көшесі, №7";"8 /7252/21-47-04";"http://2-internat.shymkent-mektebi.kz/main/";"n2daryn_school@mail.ru"
"67";"КГУ «Специализированная гимназия №8 с обучением на трех языках имени Мухамеда Хайдара Дулати» Управления образования города Шымкент";"Шымкент қаласы білім басқармасының «Мұхамед Хайдар Дулати атындағы үш тілде оқытатын № 8 мамандандырылған гимназиясы» КММ";"15";"5";"25";"25";"г. Шымкент, ул. Қазыбек би 29";" Шымкент қ.,  Қазыбек би көшесі, 29 үй";"8/7252/53-65-34";"http://www.gymnasia8.kz/";"uko_daryn8@mail.ru"
"68";"КГУ «Специализированная школа – гимназия для одаренных детей №90 имени Абая» Управления образования г. Шымкент";"Шымкент қаласы білім басқармасының «Абай атындағы №90 дарынды балаларға арналған мамандандырылған мектеп-гимназиясы» КММ";"15";"7";"75";"0";"г. Шымкент, микр. Асар, здание 1967 А";" Шымкент қ.,  Асар шағын ауданы,  1967 А ғимарат";"8/7252/41-82-10";"http://90.shymkent-mektebi.kz/";"Ssh_90@mail.ru"
"69";"ГУ «Специализированная школа-лицей № 92 для одаренных детей» имени Махатма Ганди Управления образования города Алматы";"Алматы қаласы білім басқармасының Махатма Ганди атындағы «Дарынды балаларға арналған № 92 мамандандырылған мектеплицейі» КММ";"16";"5";"100";"0";"г. Алматы, ул.Панфилова 205";"Алматы қ., Панфилов көшесі, 205";"8/7272/48-30-40";"92.alschool.kz";"Sshlod92@mail.ru"
"70";"КГУ «Специализированный лицей № 126» Управления образования города Алматы";"Алматы қаласы білім басқармасының «№ 126 мамандандырылған лицей» КММ";"16";"5";"175";"0";"г. Алматы, Ауэзовский район, Аксай 4, дом №126";" Алматы қ., Ауезов ауданы, Ақсай 4,  №126 үй";"8/7272/43-14-04";"126.alschool.kz";"shl_126@mail.ru"
"71";"КГУ «Специализированный лицей № 39 имени Султана-Ахмета Ходжикова» Управления образования города Алматы";"Алматы қаласы білім басқармасының «Сұлтан-Ахмет Ходжиков атындағы № 39 мамандандырылған лицей» КММ";"16";"5";"100";"0";"г.Алматы, улица Төле би 74/1";"Алматы қ., Төле би көшесі, 74/1";"8/7272/72-11-79";"http://39.alschool.kz";"lisei39@mail.ru"
"72";"КГУ «Специализированная школа-лицей №90» Управления образования города Алматы";"Алматы қаласы білім басқармасының «№ 90 мамандандырылған мектеп-лицей» КММ";"16";"5";"25";"100";"г.Алматы, ул.Чайковского, 28";"Алматы қ., Чайковский көшесі, 28";"8/7272/79-09-01";"90.alschool.kz";"school_9000@mail.ru"
"74";"КГУ «Специализированный лицей №178» Управления образования города Алматы";"Алматы қаласы білім басқармасының «№178 мамандандырылған лицейі» КММ";"16";"5";"50";"0";"г. Алматы, ул. 41 Суаткол";"Алматы қ., Суаткол көшесі,  41 ";"87756745554";"http://178.alschool.kz";"licei_178@mail.ru"
"75";"КГУ «Специализированная школа №9 «Зерде» акимата города Нур-Султан";"Нұр-Сұлтан қаласы әкімдігінің №9 «Зерде» мамандандырылған мектебі» КММ";"17";"7";"50";"0";"г. Нур-Султан, проспект Сарыарқа, 20";"Нұр-Сұлтан қ., Сарыарқа даңғылы, 20";"8/7172/50-18-01";"http://9.astana-bilim.kz/";"zerde07@mail.ru"
